start=new Date('2021-12-19T00:00:00.000Z').valueOf();
sats=[{"GP_ID":"191942228","RCS_SIZE":"LARGE","ELEMENT_SET_NO":"999","LAUNCH_DATE":"2021-05-09","SITE":"AFETR","CENTER_NAME":"EARTH","MEAN_MOTION":"15.06363995","REF_FRAME":"TEME","EPOCH":"2021-12-18T14:00:01.000224","REV_AT_EPOCH":"360","TLE_LINE2":"2 48431  53.0538 234.3921 0002847  69.6673 357.2084 15.06363995  3603","PERIAPSIS":"545.352","TIME_SYSTEM":"UTC","SEMIMAJOR_AXIS":"6925.459","OBJECT_TYPE":"PAYLOAD","CLASSIFICATION_TYPE":"U","TLE_LINE1":"1 48431U 21040D   21352.58334491  .00046207  00000-0  31036-2 0  9991","OBJECT_NAME":"STARLINK-2700","MEAN_ANOMALY":"357.2084","NORAD_CAT_ID":"48431","RA_OF_ASC_NODE":"234.3921","BSTAR":"0.00310360000000","FILE":"3243681","OBJECT_ID":"2021-040D","MEAN_MOTION_DDOT":"0.0000000000000","COUNTRY_CODE":"US","DECAY_DATE":null,"INCLINATION":"53.0538","MEAN_MOTION_DOT":"0.00046207","EPHEMERIS_TYPE":"0","APOAPSIS":"549.296","ECCENTRICITY":"0.00028470","MEAN_ELEMENT_THEORY":"SGP4","PERIOD":"95.594","ARG_OF_PERICENTER":"69.6673"},{"MEAN_MOTION_DDOT":"0.0000000000000","COUNTRY_CODE":"US","DECAY_DATE":null,"INCLINATION":"53.0535","EPHEMERIS_TYPE":"0","MEAN_MOTION_DOT":"0.00003878","APOAPSIS":"549.144","ECCENTRICITY":"0.00027470","PERIOD":"95.593","MEAN_ELEMENT_THEORY":"SGP4","ARG_OF_PERICENTER":"75.7095","GP_ID":"191942980","LAUNCH_DATE":"2021-05-09","ELEMENT_SET_NO":"999","RCS_SIZE":"LARGE","SITE":"AFETR","CENTER_NAME":"EARTH","EPOCH":"2021-12-18T14:00:01.000224","REV_AT_EPOCH":"360","REF_FRAME":"TEME","MEAN_MOTION":"15.06390792","TIME_SYSTEM":"UTC","PERIAPSIS":"545.339","TLE_LINE2":"2 48432  53.0535 229.3971 0002747  75.7095 298.6944 15.06390792  3603","OBJECT_TYPE":"PAYLOAD","CLASSIFICATION_TYPE":"U","SEMIMAJOR_AXIS":"6925.377","TLE_LINE1":"1 48432U 21040E   21352.58334491  .00003878  00000-0  27918-3 0  9994","OBJECT_NAME":"STARLINK-2680","MEAN_ANOMALY":"298.6944","RA_OF_ASC_NODE":"229.3971","NORAD_CAT_ID":"48432","FILE":"3243681","OBJECT_ID":"2021-040E","BSTAR":"0.00027918000000"},{"CENTER_NAME":"EARTH","MEAN_MOTION":"15.06377296","REF_FRAME":"TEME","EPOCH":"2021-12-18T14:00:01.000224","REV_AT_EPOCH":"359","SITE":"AFETR","ELEMENT_SET_NO":"999","RCS_SIZE":"LARGE","LAUNCH_DATE":"2021-05-09","GP_ID":"191942731","FILE":"3243681","BSTAR":"0.00015706000000","OBJECT_ID":"2021-040F","MEAN_ANOMALY":"176.1828","NORAD_CAT_ID":"48433","RA_OF_ASC_NODE":"234.3940","TLE_LINE1":"1 48433U 21040F   21352.58334491  .00002057  00000-0  15706-3 0  9995","OBJECT_NAME":"STARLINK-2699","TLE_LINE2":"2 48433  53.0528 234.3940 0002961  70.6579 176.1828 15.06377296  3590","PERIAPSIS":"545.233","TIME_SYSTEM":"UTC","OBJECT_TYPE":"PAYLOAD","CLASSIFICATION_TYPE":"U","SEMIMAJOR_AXIS":"6925.418","INCLINATION":"53.0528","DECAY_DATE":null,"MEAN_MOTION_DDOT":"0.0000000000000","COUNTRY_CODE":"US","MEAN_ELEMENT_THEORY":"SGP4","PERIOD":"95.594","ARG_OF_PERICENTER":"70.6579","ECCENTRICITY":"0.00029610","MEAN_MOTION_DOT":"0.00002057","EPHEMERIS_TYPE":"0","APOAPSIS":"549.334"},{"MEAN_MOTION_DDOT":"0.0000000000000","COUNTRY_CODE":"US","INCLINATION":"53.0562","DECAY_DATE":null,"EPHEMERIS_TYPE":"0","MEAN_MOTION_DOT":"0.00019483","APOAPSIS":"549.352","PERIOD":"95.594","MEAN_ELEMENT_THEORY":"SGP4","ARG_OF_PERICENTER":"69.9102","ECCENTRICITY":"0.00029290","LAUNCH_DATE":"2021-05-09","RCS_SIZE":"LARGE","ELEMENT_SET_NO":"999","GP_ID":"191941479","CENTER_NAME":"EARTH","REV_AT_EPOCH":"359","REF_FRAME":"TEME","EPOCH":"2021-12-18T14:00:01.000224","MEAN_MOTION":"15.06364219","SITE":"AFETR","TLE_LINE1":"1 48434U 21040G   21352.58334491  .00019483  00000-0  13245-2 0  9992","OBJECT_NAME":"STARLINK-2692","TIME_SYSTEM":"UTC","PERIAPSIS":"545.295","TLE_LINE2":"2 48434  53.0562 239.3943 0002929  69.9102 129.4374 15.06364219  3592","SEMIMAJOR_AXIS":"6925.458","OBJECT_TYPE":"PAYLOAD","CLASSIFICATION_TYPE":"U","BSTAR":"0.00132450000000","FILE":"3243681","OBJECT_ID":"2021-040G","MEAN_ANOMALY":"129.4374","RA_OF_ASC_NODE":"239.3943","NORAD_CAT_ID":"48434"},{"MEAN_ANOMALY":"290.4579","NORAD_CAT_ID":"48435","RA_OF_ASC_NODE":"248.9783","FILE":"3243681","BSTAR":"0.00006492000000","OBJECT_ID":"2021-040H","TIME_SYSTEM":"UTC","PERIAPSIS":"550.662","TLE_LINE2":"2 48435  53.0550 248.9783 0002254  69.6651 290.4579 15.04766717 34390","OBJECT_TYPE":"PAYLOAD","SEMIMAJOR_AXIS":"6930.359","CLASSIFICATION_TYPE":"U","OBJECT_NAME":"STARLINK-2633","TLE_LINE1":"1 48435U 21040H   21352.42988734  .00000648  00000-0  64920-4 0  9992","SITE":"AFETR","CENTER_NAME":"EARTH","REF_FRAME":"TEME","REV_AT_EPOCH":"3439","EPOCH":"2021-12-18T10:19:02.266176","MEAN_MOTION":"15.04766717","GP_ID":"191941729","LAUNCH_DATE":"2021-05-09","ELEMENT_SET_NO":"999","RCS_SIZE":"LARGE","ECCENTRICITY":"0.00022540","PERIOD":"95.696","MEAN_ELEMENT_THEORY":"SGP4","ARG_OF_PERICENTER":"69.6651","EPHEMERIS_TYPE":"0","MEAN_MOTION_DOT":"0.00000648","APOAPSIS":"553.786","DECAY_DATE":null,"INCLINATION":"53.0550","MEAN_MOTION_DDOT":"0.0000000000000","COUNTRY_CODE":"US"},{"EPHEMERIS_TYPE":"0","MEAN_MOTION_DOT":"-0.00001120","APOAPSIS":"548.921","ECCENTRICITY":"0.00024570","PERIOD":"95.592","MEAN_ELEMENT_THEORY":"SGP4","ARG_OF_PERICENTER":"61.6479","MEAN_MOTION_DDOT":"0.0000000000000","COUNTRY_CODE":"US","DECAY_DATE":null,"INCLINATION":"53.0551","TIME_SYSTEM":"UTC","PERIAPSIS":"545.517","TLE_LINE2":"2 48436  53.0551 264.9572 0002457  61.6479 298.4757 15.06398218 34172","OBJECT_TYPE":"PAYLOAD","CLASSIFICATION_TYPE":"U","SEMIMAJOR_AXIS":"6925.354","TLE_LINE1":"1 48436U 21040J   21352.45864763 -.00001120  00000-0 -56291-4 0  9991","OBJECT_NAME":"STARLINK-2639","MEAN_ANOMALY":"298.4757","NORAD_CAT_ID":"48436","RA_OF_ASC_NODE":"264.9572","FILE":"3243681","OBJECT_ID":"2021-040J","BSTAR":"-0.00005629100000","GP_ID":"191942481","LAUNCH_DATE":"2021-05-09","RCS_SIZE":"LARGE","ELEMENT_SET_NO":"999","SITE":"AFETR","CENTER_NAME":"EARTH","EPOCH":"2021-12-18T11:00:27.155232","REV_AT_EPOCH":"3417","REF_FRAME":"TEME","MEAN_MOTION":"15.06398218"},{"GP_ID":"191943231","ELEMENT_SET_NO":"999","RCS_SIZE":"LARGE","LAUNCH_DATE":"2021-05-09","SITE":"AFETR","MEAN_MOTION":"15.06405848","REV_AT_EPOCH":"3405","REF_FRAME":"TEME","EPOCH":"2021-12-18T13:48:57.228768","CENTER_NAME":"EARTH","OBJECT_TYPE":"PAYLOAD","CLASSIFICATION_TYPE":"U","SEMIMAJOR_AXIS":"6925.331","TLE_LINE2":"2 48437  53.0343 274.5329 0001878  69.0104 291.1086 15.06405848 34052","PERIAPSIS":"545.895","TIME_SYSTEM":"UTC","OBJECT_NAME":"STARLINK-2642","TLE_LINE1":"1 48437U 21040K   21352.57566237  .00001645  00000-0  12930-3 0  9991","NORAD_CAT_ID":"48437","RA_OF_ASC_NODE":"274.5329","MEAN_ANOMALY":"291.1086","OBJECT_ID":"2021-040K","FILE":"3243681","BSTAR":"0.00012930000000","COUNTRY_CODE":"US","MEAN_MOTION_DDOT":"0.0000000000000","DECAY_DATE":null,"INCLINATION":"53.0343","APOAPSIS":"548.496","MEAN_MOTION_DOT":"0.00001645","EPHEMERIS_TYPE":"0","ECCENTRICITY":"0.00018780","ARG_OF_PERICENTER":"69.0104","MEAN_ELEMENT_THEORY":"SGP4","PERIOD":"95.592"},{"MEAN_MOTION":"15.06394445","EPOCH":"2021-12-18T10:55:08.348736","REV_AT_EPOCH":"3417","REF_FRAME":"TEME","CENTER_NAME":"EARTH","SITE":"AFETR","RCS_SIZE":"LARGE","ELEMENT_SET_NO":"999","LAUNCH_DATE":"2021-05-09","GP_ID":"191941979","FILE":"3243681","BSTAR":"-0.00009001800000","OBJECT_ID":"2021-040L","RA_OF_ASC_NODE":"264.9852","NORAD_CAT_ID":"48438","MEAN_ANOMALY":"300.7858","TLE_LINE1":"1 48438U 21040L   21352.45495774 -.00001622  00000-0 -90018-4 0  9997","OBJECT_NAME":"STARLINK-2640","OBJECT_TYPE":"PAYLOAD","SEMIMAJOR_AXIS":"6925.366","CLASSIFICATION_TYPE":"U","PERIAPSIS":"545.690","TLE_LINE2":"2 48438  53.0548 264.9852 0002225  59.3350 300.7858 15.06394445 34173","TIME_SYSTEM":"UTC","INCLINATION":"53.0548","DECAY_DATE":null,"COUNTRY_CODE":"US","MEAN_MOTION_DDOT":"0.0000000000000","ARG_OF_PERICENTER":"59.3350","MEAN_ELEMENT_THEORY":"SGP4","PERIOD":"95.592","ECCENTRICITY":"0.00022250","APOAPSIS":"548.771","MEAN_MOTION_DOT":"-0.00001622","EPHEMERIS_TYPE":"0"},{"ARG_OF_PERICENTER":"64.2510","PERIOD":"95.592","MEAN_ELEMENT_THEORY":"SGP4","ECCENTRICITY":"0.00022290","APOAPSIS":"548.771","EPHEMERIS_TYPE":"0","MEAN_MOTION_DOT":"0.00000809","INCLINATION":"53.0549","DECAY_DATE":null,"COUNTRY_CODE":"US","MEAN_MOTION_DDOT":"0.0000000000000","BSTAR":"0.00007323700000","FILE":"3243681","OBJECT_ID":"2021-040M","RA_OF_ASC_NODE":"265.8985","NORAD_CAT_ID":"48439","MEAN_ANOMALY":"295.8709","TLE_LINE1":"1 48439U 21040M   21352.25223009  .00000809  00000-0  73237-4 0  9994","OBJECT_NAME":"STARLINK-2583","SEMIMAJOR_AXIS":"6925.362","OBJECT_TYPE":"PAYLOAD","CLASSIFICATION_TYPE":"U","TIME_SYSTEM":"UTC","PERIAPSIS":"545.683","TLE_LINE2":"2 48439  53.0549 265.8985 0002229  64.2510 295.8709 15.06395631 34143","EPOCH":"2021-12-18T06:03:12.679776","REF_FRAME":"TEME","REV_AT_EPOCH":"3414","MEAN_MOTION":"15.06395631","CENTER_NAME":"EARTH","SITE":"AFETR","LAUNCH_DATE":"2021-05-09","RCS_SIZE":"LARGE","ELEMENT_SET_NO":"999","GP_ID":"191942229"},{"GP_ID":"191942981","RCS_SIZE":"LARGE","ELEMENT_SET_NO":"999","LAUNCH_DATE":"2021-05-09","SITE":"AFETR","MEAN_MOTION":"15.06402140","REF_FRAME":"TEME","REV_AT_EPOCH":"3414","EPOCH":"2021-12-18T05:57:54.211968","CENTER_NAME":"EARTH","SEMIMAJOR_AXIS":"6925.342","OBJECT_TYPE":"PAYLOAD","CLASSIFICATION_TYPE":"U","PERIAPSIS":"545.669","TLE_LINE2":"2 48440  53.0565 265.9024 0002221  65.1684 294.9535 15.06402140 34143","TIME_SYSTEM":"UTC","TLE_LINE1":"1 48440U 21040N   21352.24854412  .00001670  00000-0  13101-3 0  9993","OBJECT_NAME":"STARLINK-2682","NORAD_CAT_ID":"48440","RA_OF_ASC_NODE":"265.9024","MEAN_ANOMALY":"294.9535","FILE":"3243681","BSTAR":"0.00013101000000","OBJECT_ID":"2021-040N","COUNTRY_CODE":"US","MEAN_MOTION_DDOT":"0.0000000000000","DECAY_DATE":null,"INCLINATION":"53.0565","APOAPSIS":"548.745","MEAN_MOTION_DOT":"0.00001670","EPHEMERIS_TYPE":"0","ECCENTRICITY":"0.00022210","ARG_OF_PERICENTER":"65.1684","MEAN_ELEMENT_THEORY":"SGP4","PERIOD":"95.592"}];
